1 43013U 17073A   26013.56788096  .00000060  00000+0  49292-4 0  9995
2 43013  98.7633 314.5224 0001558  41.3934 318.7360 14.19535692422532
